{"type": "FeatureCollection","features":[{"type": "Feature","properties": {"postcode": "EC1V 1AQ"},"geometry":{"type":"Point","coordinates":[-0.089584870473813,51.527960499546]}},{"type": "Feature","properties": {"postcode": "EC1V 1AR"},"geometry":{"type":"Point","coordinates":[-0.089584870473813,51.527960499546]}},{"type": "Feature","properties": {"postcode": "EC1V 1AT"},"geometry":{"type":"Point","coordinates":[-0.089584870473813,51.527960499546]}},{"type": "Feature","properties": {"postcode": "EC1V 1AW"},"geometry":{"type":"Point","coordinates":[-0.090135083939179,51.5282482291412]}},{"type": "Feature","properties": {"postcode": "EC1V 1JB"},"geometry":{"type":"Point","coordinates":[-0.08769866892704,51.5265255176899]}},{"type": "Feature","properties": {"postcode": "EC1V 1JH"},"geometry":{"type":"Point","coordinates":[-0.08897977405859,51.5279492339222]}},{"type": "Feature","properties": {"postcode": "EC1V 1JN"},"geometry":{"type":"Point","coordinates":[-0.091197,51.5283408302921]}},{"type": "Feature","properties": {"postcode": "EC1V 1JQ"},"geometry":{"type":"Point","coordinates":[-0.094814611086403,51.5297707159034]}},{"type": "Feature","properties": {"postcode": "EC1V 1JT"},"geometry":{"type":"Point","coordinates":[-0.092883,51.5287738127046]}},{"type": "Feature","properties": {"postcode": "EC1V 1NR"},"geometry":{"type":"Point","coordinates":[-0.089671,51.52798]}},{"type": "Feature","properties": {"postcode": "EC1V 1QH"},"geometry":{"type":"Point","coordinates":[-0.09093849166471,51.5283408302921]}},{"type": "Feature","properties": {"postcode": "EC1V 9EE"},"geometry":{"type":"Point","coordinates":[-0.087335589729085,51.5269332552344]}},{"type": "Feature","properties": {"postcode": "EC1V 9EY"},"geometry":{"type":"Point","coordinates":[-0.084321143480994,51.5266232790475]}},{"type": "Feature","properties": {"postcode": "EC1V 9GR"},"geometry":{"type":"Point","coordinates":[-0.087335594063482,51.5269346608487]}},{"type": "Feature","properties": {"postcode": "EC1V 9HD"},"geometry":{"type":"Point","coordinates":[-0.086206511509218,51.5266990178793]}},{"type": "Feature","properties": {"postcode": "EC1V 9HE"},"geometry":{"type":"Point","coordinates":[-0.086301,51.526136164855]}},{"type": "Feature","properties": {"postcode": "EC1V 9LH"},"geometry":{"type":"Point","coordinates":[-0.087335589729085,51.5269332552344]}},{"type": "Feature","properties": {"postcode": "EC1V 9NX"},"geometry":{"type":"Point","coordinates":[-0.086709986796622,51.5267252163967]}},{"type": "Feature","properties": {"postcode": "EC1V 9PA"},"geometry":{"type":"Point","coordinates":[-0.086980228024638,51.5264688400732]}},{"type": "Feature","properties": {"postcode": "EC1V 9PB"},"geometry":{"type":"Point","coordinates":[-0.086525249306394,51.526317538096]}},{"type": "Feature","properties": {"postcode": "EC1V 9PD"},"geometry":{"type":"Point","coordinates":[-0.087372968555089,51.526385319114]}},{"type": "Feature","properties": {"postcode": "EC1V 9PE"},"geometry":{"type":"Point","coordinates":[-0.086717612350817,51.5268872067073]}},{"type": "Feature","properties": {"postcode": "N1 5DR"},"geometry":{"type":"Point","coordinates":[-0.08682857187423,51.533525516054]}},{"type": "Feature","properties": {"postcode": "N1 5DW"},"geometry":{"type":"Point","coordinates":[-0.087405201395114,51.5331842099687]}},{"type": "Feature","properties": {"postcode": "N1 5DX"},"geometry":{"type":"Point","coordinates":[-0.086449800429892,51.533618255888]}},{"type": "Feature","properties": {"postcode": "N1 5EF"},"geometry":{"type":"Point","coordinates":[-0.08652514729887,51.5331968354575]}},{"type": "Feature","properties": {"postcode": "N1 5EG"},"geometry":{"type":"Point","coordinates":[-0.086467424934045,51.5328541772295]}},{"type": "Feature","properties": {"postcode": "N1 5EH"},"geometry":{"type":"Point","coordinates":[-0.086032909085606,51.5329010436318]}},{"type": "Feature","properties": {"postcode": "N1 5EJ"},"geometry":{"type":"Point","coordinates":[-0.085501303340699,51.5328563984405]}},{"type": "Feature","properties": {"postcode": "N1 5EP"},"geometry":{"type":"Point","coordinates":[-0.084139361849008,51.5330140135006]}},{"type": "Feature","properties": {"postcode": "N1 5EU"},"geometry":{"type":"Point","coordinates":[-0.087240302931264,51.5333343944826]}},{"type": "Feature","properties": {"postcode": "N1 5JJ"},"geometry":{"type":"Point","coordinates":[-0.083269502865668,51.5327839822686]}},{"type": "Feature","properties": {"postcode": "N1 5LW"},"geometry":{"type":"Point","coordinates":[-0.08652514729887,51.5331968354575]}},{"type": "Feature","properties": {"postcode": "N1 6AA"},"geometry":{"type":"Point","coordinates":[-0.086555,51.529736]}},{"type": "Feature","properties": {"postcode": "N1 6AB"},"geometry":{"type":"Point","coordinates":[-0.086858931417423,51.5293624628431]}},{"type": "Feature","properties": {"postcode": "N1 6AD"},"geometry":{"type":"Point","coordinates":[-0.08766826784466,51.52728]}},{"type": "Feature","properties": {"postcode": "N1 6AH"},"geometry":{"type":"Point","coordinates":[-0.087932,51.528518]}},{"type": "Feature","properties": {"postcode": "N1 6AN"},"geometry":{"type":"Point","coordinates":[-0.086555,51.5297780085415]}},{"type": "Feature","properties": {"postcode": "N1 6AP"},"geometry":{"type":"Point","coordinates":[-0.086555,51.5297780085415]}},{"type": "Feature","properties": {"postcode": "N1 6AQ"},"geometry":{"type":"Point","coordinates":[-0.086884162490887,51.5301362334213]}},{"type": "Feature","properties": {"postcode": "N1 6AR"},"geometry":{"type":"Point","coordinates":[-0.082454,51.5316269182]}},{"type": "Feature","properties": {"postcode": "N1 6AS"},"geometry":{"type":"Point","coordinates":[-0.0862054146,51.5298208182]}},{"type": "Feature","properties": {"postcode": "N1 6AT"},"geometry":{"type":"Point","coordinates":[-0.0877183688,51.527615]}},{"type": "Feature","properties": {"postcode": "N1 6AU"},"geometry":{"type":"Point","coordinates":[-0.082944408992015,51.5298830687948]}},{"type": "Feature","properties": {"postcode": "N1 6AW"},"geometry":{"type":"Point","coordinates":[-0.0873090450165,51.5296305870487]}},{"type": "Feature","properties": {"postcode": "N1 6BA"},"geometry":{"type":"Point","coordinates":[-0.085694,51.529992]}},{"type": "Feature","properties": {"postcode": "N1 6BF"},"geometry":{"type":"Point","coordinates":[-0.085679200499447,51.5299906794062]}},{"type": "Feature","properties": {"postcode": "N1 6BH"},"geometry":{"type":"Point","coordinates":[-0.085253,51.52985]}},{"type": "Feature","properties": {"postcode": "N1 6BJ"},"geometry":{"type":"Point","coordinates":[-0.084031127435607,51.5266635050123]}},{"type": "Feature","properties": {"postcode": "N1 6BL"},"geometry":{"type":"Point","coordinates":[-0.085930452129418,51.5295001893093]}},{"type": "Feature","properties": {"postcode": "N1 6BN"},"geometry":{"type":"Point","coordinates":[-0.084554582216095,51.5296485888351]}},{"type": "Feature","properties": {"postcode": "N1 6BP"},"geometry":{"type":"Point","coordinates":[-0.083930534383992,51.5297463075266]}},{"type": "Feature","properties": {"postcode": "N1 6BS"},"geometry":{"type":"Point","coordinates":[-0.083771606324306,51.529565]}},{"type": "Feature","properties": {"postcode": "N1 6BT"},"geometry":{"type":"Point","coordinates":[-0.083765191559621,51.5295637555779]}},{"type": "Feature","properties": {"postcode": "N1 6BU"},"geometry":{"type":"Point","coordinates":[-0.083846215271382,51.5290075409594]}},{"type": "Feature","properties": {"postcode": "N1 6BY"},"geometry":{"type":"Point","coordinates":[-0.084556999033871,51.5285605296328]}},{"type": "Feature","properties": {"postcode": "N1 6BZ"},"geometry":{"type":"Point","coordinates":[-0.0867174042812,51.5289554898221]}},{"type": "Feature","properties": {"postcode": "N1 6DA"},"geometry":{"type":"Point","coordinates":[-0.083843674206838,51.5276945867346]}},{"type": "Feature","properties": {"postcode": "N1 6DB"},"geometry":{"type":"Point","coordinates":[-0.084462413553325,51.5277226776957]}},{"type": "Feature","properties": {"postcode": "N1 6DD"},"geometry":{"type":"Point","coordinates":[-0.085351194619574,51.5281868159959]}},{"type": "Feature","properties": {"postcode": "N1 6DF"},"geometry":{"type":"Point","coordinates":[-0.085842247536951,51.5285095695371]}},{"type": "Feature","properties": {"postcode": "N1 6DG"},"geometry":{"type":"Point","coordinates":[-0.087263278468945,51.5286586456269]}},{"type": "Feature","properties": {"postcode": "N1 6DH"},"geometry":{"type":"Point","coordinates":[-0.084663807719185,51.5280766759038]}},{"type": "Feature","properties": {"postcode": "N1 6DL"},"geometry":{"type":"Point","coordinates":[-0.085606,51.527949]}},{"type": "Feature","properties": {"postcode": "N1 6DN"},"geometry":{"type":"Point","coordinates":[-0.085515621293278,51.527535]}},{"type": "Feature","properties": {"postcode": "N1 6DP"},"geometry":{"type":"Point","coordinates":[-0.086820525672168,51.5275273564156]}},{"type": "Feature","properties": {"postcode": "N1 6DQ"},"geometry":{"type":"Point","coordinates":[-0.085456730169685,51.5287640618212]}},{"type": "Feature","properties": {"postcode": "N1 6DR"},"geometry":{"type":"Point","coordinates":[-0.086882,51.5277780358471]}},{"type": "Feature","properties": {"postcode": "N1 6DS"},"geometry":{"type":"Point","coordinates":[-0.08609902340599,51.5289184241766]}},{"type": "Feature","properties": {"postcode": "N1 6DW"},"geometry":{"type":"Point","coordinates":[-0.086783983708457,51.5283990377423]}},{"type": "Feature","properties": {"postcode": "N1 6DX"},"geometry":{"type":"Point","coordinates":[-0.086554,51.527362]}},{"type": "Feature","properties": {"postcode": "N1 6DZ"},"geometry":{"type":"Point","coordinates":[-0.086756311544846,51.5269957485473]}},{"type": "Feature","properties": {"postcode": "N1 6EA"},"geometry":{"type":"Point","coordinates":[-0.085509048894495,51.5271732341428]}},{"type": "Feature","properties": {"postcode": "N1 6EB"},"geometry":{"type":"Point","coordinates":[-0.085291,51.5275336306754]}},{"type": "Feature","properties": {"postcode": "N1 6ED"},"geometry":{"type":"Point","coordinates":[-0.085981,51.5293441290618]}},{"type": "Feature","properties": {"postcode": "N1 6EF"},"geometry":{"type":"Point","coordinates":[-0.08691091815683,51.5281223389998]}},{"type": "Feature","properties": {"postcode": "N1 6EH"},"geometry":{"type":"Point","coordinates":[-0.084504496339924,51.5294679199494]}},{"type": "Feature","properties": {"postcode": "N1 6EJ"},"geometry":{"type":"Point","coordinates":[-0.084851,51.5290980191115]}},{"type": "Feature","properties": {"postcode": "N1 6EL"},"geometry":{"type":"Point","coordinates":[-0.083150765355369,51.5284026699191]}},{"type": "Feature","properties": {"postcode": "N1 6EN"},"geometry":{"type":"Point","coordinates":[-0.082762275007097,51.5290707623056]}},{"type": "Feature","properties": {"postcode": "N1 6EP"},"geometry":{"type":"Point","coordinates":[-0.082402790590296,51.5287051839509]}},{"type": "Feature","properties": {"postcode": "N1 6ES"},"geometry":{"type":"Point","coordinates":[-0.082419027096711,51.5283187695452]}},{"type": "Feature","properties": {"postcode": "N1 6ET"},"geometry":{"type":"Point","coordinates":[-0.08288646899515,51.5281735367877]}},{"type": "Feature","properties": {"postcode": "N1 6FA"},"geometry":{"type":"Point","coordinates":[-0.0861048852,51.5280926086]}},{"type": "Feature","properties": {"postcode": "N1 6FB"},"geometry":{"type":"Point","coordinates":[-0.0861304481,51.5302332521]}},{"type": "Feature","properties": {"postcode": "N1 6FD"},"geometry":{"type":"Point","coordinates":[-0.0857004806,51.530306]}},{"type": "Feature","properties": {"postcode": "N1 6FE"},"geometry":{"type":"Point","coordinates":[-0.0877183688,51.527615]}},{"type": "Feature","properties": {"postcode": "N1 6FF"},"geometry":{"type":"Point","coordinates":[-0.0877183688,51.527615]}},{"type": "Feature","properties": {"postcode": "N1 6FG"},"geometry":{"type":"Point","coordinates":[-0.0877183688,51.527615]}},{"type": "Feature","properties": {"postcode": "N1 6FH"},"geometry":{"type":"Point","coordinates":[-0.0877183688,51.527615]}},{"type": "Feature","properties": {"postcode": "N1 6FJ"},"geometry":{"type":"Point","coordinates":[-0.0877183688,51.527615]}},{"type": "Feature","properties": {"postcode": "N1 6FL"},"geometry":{"type":"Point","coordinates":[-0.0877183688,51.527615]}},{"type": "Feature","properties": {"postcode": "N1 6FN"},"geometry":{"type":"Point","coordinates":[-0.0877183688,51.527615]}},{"type": "Feature","properties": {"postcode": "N1 6FP"},"geometry":{"type":"Point","coordinates":[-0.0877183688,51.527615]}},{"type": "Feature","properties": {"postcode": "N1 6FQ"},"geometry":{"type":"Point","coordinates":[-0.0877183688,51.527615]}},{"type": "Feature","properties": {"postcode": "N1 6FR"},"geometry":{"type":"Point","coordinates":[-0.0877183688,51.527615]}},{"type": "Feature","properties": {"postcode": "N1 6FS"},"geometry":{"type":"Point","coordinates":[-0.0877183688,51.527615]}},{"type": "Feature","properties": {"postcode": "N1 6FT"},"geometry":{"type":"Point","coordinates":[-0.0877183688,51.527615]}},{"type": "Feature","properties": {"postcode": "N1 6FW"},"geometry":{"type":"Point","coordinates":[-0.0877183688,51.527615]}},{"type": "Feature","properties": {"postcode": "N1 6FX"},"geometry":{"type":"Point","coordinates":[-0.0877183688,51.527615]}},{"type": "Feature","properties": {"postcode": "N1 6FY"},"geometry":{"type":"Point","coordinates":[-0.0877183688,51.527615]}},{"type": "Feature","properties": {"postcode": "N1 6HB"},"geometry":{"type":"Point","coordinates":[-0.083837121253481,51.5271639189949]}},{"type": "Feature","properties": {"postcode": "N1 6HL"},"geometry":{"type":"Point","coordinates":[-0.084031127435607,51.5266635050123]}},{"type": "Feature","properties": {"postcode": "N1 6HN"},"geometry":{"type":"Point","coordinates":[-0.084850035853225,51.5267308336516]}},{"type": "Feature","properties": {"postcode": "N1 6HR"},"geometry":{"type":"Point","coordinates":[-0.085006778900919,51.5274617895237]}},{"type": "Feature","properties": {"postcode": "N1 6HS"},"geometry":{"type":"Point","coordinates":[-0.084229496057841,51.5270893950856]}},{"type": "Feature","properties": {"postcode": "N1 6HT"},"geometry":{"type":"Point","coordinates":[-0.084048316865338,51.5272842720459]}},{"type": "Feature","properties": {"postcode": "N1 6HX"},"geometry":{"type":"Point","coordinates":[-0.082685828971924,51.5298608574328]}},{"type": "Feature","properties": {"postcode": "N1 6JA"},"geometry":{"type":"Point","coordinates":[-0.084444750534083,51.5302043334088]}},{"type": "Feature","properties": {"postcode": "N1 6JB"},"geometry":{"type":"Point","coordinates":[-0.085268,51.530525]}},{"type": "Feature","properties": {"postcode": "N1 6JE"},"geometry":{"type":"Point","coordinates":[-0.085164535289156,51.5309175041551]}},{"type": "Feature","properties": {"postcode": "N1 6JF"},"geometry":{"type":"Point","coordinates":[-0.080709493917165,51.5309166361692]}},{"type": "Feature","properties": {"postcode": "N1 6JG"},"geometry":{"type":"Point","coordinates":[-0.084040345930234,51.5309081401401]}},{"type": "Feature","properties": {"postcode": "N1 6JH"},"geometry":{"type":"Point","coordinates":[-0.083226021870256,51.5314164044262]}},{"type": "Feature","properties": {"postcode": "N1 6JJ"},"geometry":{"type":"Point","coordinates":[-0.083632,51.531712]}},{"type": "Feature","properties": {"postcode": "N1 6JL"},"geometry":{"type":"Point","coordinates":[-0.084549221033795,51.5311502570072]}},{"type": "Feature","properties": {"postcode": "N1 6JN"},"geometry":{"type":"Point","coordinates":[-0.085126292289485,51.5311416935648]}},{"type": "Feature","properties": {"postcode": "N1 6JP"},"geometry":{"type":"Point","coordinates":[-0.08268455942587,51.531976]}},{"type": "Feature","properties": {"postcode": "N1 6JQ"},"geometry":{"type":"Point","coordinates":[-0.082066095711684,51.5308848696272]}},{"type": "Feature","properties": {"postcode": "N1 6JR"},"geometry":{"type":"Point","coordinates":[-0.083189,51.5308500657329]}},{"type": "Feature","properties": {"postcode": "N1 6JX"},"geometry":{"type":"Point","coordinates":[-0.08189303905076,51.5298568889892]}},{"type": "Feature","properties": {"postcode": "N1 6JY"},"geometry":{"type":"Point","coordinates":[-0.080832553990982,51.529704654852]}},{"type": "Feature","properties": {"postcode": "N1 6LA"},"geometry":{"type":"Point","coordinates":[-0.080514078534179,51.5297354140491]}},{"type": "Feature","properties": {"postcode": "N1 6LB"},"geometry":{"type":"Point","coordinates":[-0.080286541278093,51.5293180329139]}},{"type": "Feature","properties": {"postcode": "N1 6LD"},"geometry":{"type":"Point","coordinates":[-0.080811251211057,51.529182738128]}},{"type": "Feature","properties": {"postcode": "N1 6LE"},"geometry":{"type":"Point","coordinates":[-0.081623725006781,51.529061140116]}},{"type": "Feature","properties": {"postcode": "N1 6LG"},"geometry":{"type":"Point","coordinates":[-0.081571488957171,51.5296178241756]}},{"type": "Feature","properties": {"postcode": "N1 6LH"},"geometry":{"type":"Point","coordinates":[-0.082442730976962,51.5294702039275]}},{"type": "Feature","properties": {"postcode": "N1 6LQ"},"geometry":{"type":"Point","coordinates":[-0.0809913659791,51.5293565434442]}},{"type": "Feature","properties": {"postcode": "N1 6LU"},"geometry":{"type":"Point","coordinates":[-0.085708558338522,51.5306655996066]}},{"type": "Feature","properties": {"postcode": "N1 6LW"},"geometry":{"type":"Point","coordinates":[-0.085708558338522,51.5306655996066]}},{"type": "Feature","properties": {"postcode": "N1 6NP"},"geometry":{"type":"Point","coordinates":[-0.083623583571608,51.5305326376633]}},{"type": "Feature","properties": {"postcode": "N1 6NT"},"geometry":{"type":"Point","coordinates":[-0.081900752514717,51.5283013032518]}},{"type": "Feature","properties": {"postcode": "N1 6PG"},"geometry":{"type":"Point","coordinates":[-0.080476,51.5316707838529]}},{"type": "Feature","properties": {"postcode": "N1 6PH"},"geometry":{"type":"Point","coordinates":[-0.08040407714492,51.5323504469516]}},{"type": "Feature","properties": {"postcode": "N1 6PJ"},"geometry":{"type":"Point","coordinates":[-0.080413064214777,51.5314513388146]}},{"type": "Feature","properties": {"postcode": "N1 6PL"},"geometry":{"type":"Point","coordinates":[-0.081004264282841,51.5321354533097]}},{"type": "Feature","properties": {"postcode": "N1 6PN"},"geometry":{"type":"Point","coordinates":[-0.081794826974943,51.5321933464044]}},{"type": "Feature","properties": {"postcode": "N1 6PP"},"geometry":{"type":"Point","coordinates":[-0.081012483560056,51.5312543177125]}},{"type": "Feature","properties": {"postcode": "N1 6PR"},"geometry":{"type":"Point","coordinates":[-0.081498197237898,51.5313611807072]}},{"type": "Feature","properties": {"postcode": "N1 6PS"},"geometry":{"type":"Point","coordinates":[-0.081960007615828,51.5313507476677]}},{"type": "Feature","properties": {"postcode": "N1 6PT"},"geometry":{"type":"Point","coordinates":[-0.082358086116542,51.531332]}},{"type": "Feature","properties": {"postcode": "N1 6PW"},"geometry":{"type":"Point","coordinates":[-0.082354482122917,51.5322564521218]}},{"type": "Feature","properties": {"postcode": "N1 6PX"},"geometry":{"type":"Point","coordinates":[-0.08063452036925,51.5316707838529]}},{"type": "Feature","properties": {"postcode": "N1 6PZ"},"geometry":{"type":"Point","coordinates":[-0.082776474843937,51.5321644319403]}},{"type": "Feature","properties": {"postcode": "N1 6QA"},"geometry":{"type":"Point","coordinates":[-0.081459078462001,51.5309199058673]}},{"type": "Feature","properties": {"postcode": "N1 6QB"},"geometry":{"type":"Point","coordinates":[-0.082483863877022,51.5305499825951]}},{"type": "Feature","properties": {"postcode": "N1 6QD"},"geometry":{"type":"Point","coordinates":[-0.082792089134507,51.5304201324302]}},{"type": "Feature","properties": {"postcode": "N1 6QE"},"geometry":{"type":"Point","coordinates":[-0.081507866209605,51.5301023815156]}},{"type": "Feature","properties": {"postcode": "N1 6QF"},"geometry":{"type":"Point","coordinates":[-0.08104120381604,51.5305713535507]}},{"type": "Feature","properties": {"postcode": "N1 6QG"},"geometry":{"type":"Point","coordinates":[-0.080554699374933,51.5301407437069]}},{"type": "Feature","properties": {"postcode": "N1 6QH"},"geometry":{"type":"Point","coordinates":[-0.080972141101853,51.5301565662631]}},{"type": "Feature","properties": {"postcode": "N1 6QJ"},"geometry":{"type":"Point","coordinates":[-0.080465186311982,51.5298695023015]}},{"type": "Feature","properties": {"postcode": "N1 6QL"},"geometry":{"type":"Point","coordinates":[-0.080496647198089,51.5298070692446]}},{"type": "Feature","properties": {"postcode": "N1 6QN"},"geometry":{"type":"Point","coordinates":[-0.080613,51.528416]}},{"type": "Feature","properties": {"postcode": "N1 6QQ"},"geometry":{"type":"Point","coordinates":[-0.080448888838511,51.5299141983798]}},{"type": "Feature","properties": {"postcode": "N1 6RA"},"geometry":{"type":"Point","coordinates":[-0.08040407714492,51.5323504469516]}},{"type": "Feature","properties": {"postcode": "N1 6RB"},"geometry":{"type":"Point","coordinates":[-0.081752032898115,51.5325253709502]}},{"type": "Feature","properties": {"postcode": "N1 6TA"},"geometry":{"type":"Point","coordinates":[-0.088307020653673,51.5336845073951]}},{"type": "Feature","properties": {"postcode": "N1 6TD"},"geometry":{"type":"Point","coordinates":[-0.086517345039658,51.5323514090869]}},{"type": "Feature","properties": {"postcode": "N1 6TE"},"geometry":{"type":"Point","coordinates":[-0.086292001393442,51.5318801206952]}},{"type": "Feature","properties": {"postcode": "N1 6TG"},"geometry":{"type":"Point","coordinates":[-0.086744200416553,51.532786751467]}},{"type": "Feature","properties": {"postcode": "N1 6TH"},"geometry":{"type":"Point","coordinates":[-0.085882164526696,51.5320263071055]}},{"type": "Feature","properties": {"postcode": "N1 6TJ"},"geometry":{"type":"Point","coordinates":[-0.085690416209922,51.5324728053338]}},{"type": "Feature","properties": {"postcode": "N1 6TL"},"geometry":{"type":"Point","coordinates":[-0.085890373566546,51.5314868883122]}},{"type": "Feature","properties": {"postcode": "N1 6TN"},"geometry":{"type":"Point","coordinates":[-0.085136253474307,51.5315914835318]}},{"type": "Feature","properties": {"postcode": "N1 6TR"},"geometry":{"type":"Point","coordinates":[-0.084591838950403,51.531852371629]}},{"type": "Feature","properties": {"postcode": "N1 6TS"},"geometry":{"type":"Point","coordinates":[-0.085334652667725,51.5320173717233]}},{"type": "Feature","properties": {"postcode": "N1 6TT"},"geometry":{"type":"Point","coordinates":[-0.085334652667725,51.5320173717233]}},{"type": "Feature","properties": {"postcode": "N1 6TX"},"geometry":{"type":"Point","coordinates":[-0.084973093018228,51.5327308733544]}},{"type": "Feature","properties": {"postcode": "N1 6TY"},"geometry":{"type":"Point","coordinates":[-0.083528788503222,51.5324465018659]}},{"type": "Feature","properties": {"postcode": "N1 6TZ"},"geometry":{"type":"Point","coordinates":[-0.083675446256024,51.532044233173]}},{"type": "Feature","properties": {"postcode": "N1 7BD"},"geometry":{"type":"Point","coordinates":[-0.09284063890679,51.529569]}},{"type": "Feature","properties": {"postcode": "N1 7BP"},"geometry":{"type":"Point","coordinates":[-0.092390627627503,51.5294705374586]}},{"type": "Feature","properties": {"postcode": "N1 7BQ"},"geometry":{"type":"Point","coordinates":[-0.092612642899567,51.5300226927358]}},{"type": "Feature","properties": {"postcode": "N1 7EB"},"geometry":{"type":"Point","coordinates":[-0.091286001757492,51.5341646589256]}},{"type": "Feature","properties": {"postcode": "N1 7ED"},"geometry":{"type":"Point","coordinates":[-0.092660110201367,51.5340611138463]}},{"type": "Feature","properties": {"postcode": "N1 7EF"},"geometry":{"type":"Point","coordinates":[-0.092034385354384,51.5338531023974]}},{"type": "Feature","properties": {"postcode": "N1 7EG"},"geometry":{"type":"Point","coordinates":[-0.090948204585764,51.5343120351751]}},{"type": "Feature","properties": {"postcode": "N1 7EH"},"geometry":{"type":"Point","coordinates":[-0.090376852134318,51.5345275489486]}},{"type": "Feature","properties": {"postcode": "N1 7EJ"},"geometry":{"type":"Point","coordinates":[-0.089070630424038,51.5347310911914]}},{"type": "Feature","properties": {"postcode": "N1 7EL"},"geometry":{"type":"Point","coordinates":[-0.089403,51.534027]}},{"type": "Feature","properties": {"postcode": "N1 7ER"},"geometry":{"type":"Point","coordinates":[-0.093220792778429,51.533631]}},{"type": "Feature","properties": {"postcode": "N1 7ES"},"geometry":{"type":"Point","coordinates":[-0.090384139870857,51.5336643840107]}},{"type": "Feature","properties": {"postcode": "N1 7EU"},"geometry":{"type":"Point","coordinates":[-0.096459,51.5324831604821]}},{"type": "Feature","properties": {"postcode": "N1 7EW"},"geometry":{"type":"Point","coordinates":[-0.096622,51.53276]}},{"type": "Feature","properties": {"postcode": "N1 7EX"},"geometry":{"type":"Point","coordinates":[-0.091567283076989,51.53175]}},{"type": "Feature","properties": {"postcode": "N1 7EY"},"geometry":{"type":"Point","coordinates":[-0.089325963670759,51.5351758846389]}},{"type": "Feature","properties": {"postcode": "N1 7FA"},"geometry":{"type":"Point","coordinates":[-0.093979,51.530442]}},{"type": "Feature","properties": {"postcode": "N1 7FB"},"geometry":{"type":"Point","coordinates":[-0.089454211382681,51.5307356587386]}},{"type": "Feature","properties": {"postcode": "N1 7FD"},"geometry":{"type":"Point","coordinates":[-0.089454211382681,51.5307356587386]}},{"type": "Feature","properties": {"postcode": "N1 7FQ"},"geometry":{"type":"Point","coordinates":[-0.0937456493,51.5312025634]}},{"type": "Feature","properties": {"postcode": "N1 7FY"},"geometry":{"type":"Point","coordinates":[-0.091551,51.5301989886711]}},{"type": "Feature","properties": {"postcode": "N1 7GE"},"geometry":{"type":"Point","coordinates":[-0.093851,51.5314042455]}},{"type": "Feature","properties": {"postcode": "N1 7GF"},"geometry":{"type":"Point","coordinates":[-0.089087,51.5312597546]}},{"type": "Feature","properties": {"postcode": "N1 7GG"},"geometry":{"type":"Point","coordinates":[-0.093566463,51.53085]}},{"type": "Feature","properties": {"postcode": "N1 7GH"},"geometry":{"type":"Point","coordinates":[-0.093566463,51.530444]}},{"type": "Feature","properties": {"postcode": "N1 7GJ"},"geometry":{"type":"Point","coordinates":[-0.089913313517161,51.5328563825116]}},{"type": "Feature","properties": {"postcode": "N1 7GL"},"geometry":{"type":"Point","coordinates":[-0.093419,51.530388]}},{"type": "Feature","properties": {"postcode": "N1 7GN"},"geometry":{"type":"Point","coordinates":[-0.089486,51.5282482291]}},{"type": "Feature","properties": {"postcode": "N1 7GP"},"geometry":{"type":"Point","coordinates":[-0.095009,51.530629]}},{"type": "Feature","properties": {"postcode": "N1 7GQ"},"geometry":{"type":"Point","coordinates":[-0.095186,51.530893]}},{"type": "Feature","properties": {"postcode": "N1 7GR"},"geometry":{"type":"Point","coordinates":[-0.0954663613,51.531428352]}},{"type": "Feature","properties": {"postcode": "N1 7GS"},"geometry":{"type":"Point","coordinates":[-0.0959180463,51.5316604988]}},{"type": "Feature","properties": {"postcode": "N1 7GT"},"geometry":{"type":"Point","coordinates":[-0.0948022388,51.5317952529]}},{"type": "Feature","properties": {"postcode": "N1 7GU"},"geometry":{"type":"Point","coordinates":[-0.093566463,51.5306600989]}},{"type": "Feature","properties": {"postcode": "N1 7GW"},"geometry":{"type":"Point","coordinates":[-0.090537,51.53421]}},{"type": "Feature","properties": {"postcode": "N1 7GX"},"geometry":{"type":"Point","coordinates":[-0.090929,51.534153]}},{"type": "Feature","properties": {"postcode": "N1 7HA"},"geometry":{"type":"Point","coordinates":[-0.091704358320331,51.5334700475505]}},{"type": "Feature","properties": {"postcode": "N1 7HB"},"geometry":{"type":"Point","coordinates":[-0.089118695845417,51.533239112717]}},{"type": "Feature","properties": {"postcode": "N1 7HD"},"geometry":{"type":"Point","coordinates":[-0.089698426824152,51.5331676221689]}},{"type": "Feature","properties": {"postcode": "N1 7HF"},"geometry":{"type":"Point","coordinates":[-0.091477,51.533737]}},{"type": "Feature","properties": {"postcode": "N1 7HG"},"geometry":{"type":"Point","coordinates":[-0.088770043599185,51.5326129473886]}},{"type": "Feature","properties": {"postcode": "N1 7HH"},"geometry":{"type":"Point","coordinates":[-0.087837360862244,51.5328495387273]}},{"type": "Feature","properties": {"postcode": "N1 7HJ"},"geometry":{"type":"Point","coordinates":[-0.087866276339067,51.5331917266545]}},{"type": "Feature","properties": {"postcode": "N1 7HL"},"geometry":{"type":"Point","coordinates":[-0.090319643571751,51.5324493413276]}},{"type": "Feature","properties": {"postcode": "N1 7HN"},"geometry":{"type":"Point","coordinates":[-0.090841608354233,51.5320351882635]}},{"type": "Feature","properties": {"postcode": "N1 7HP"},"geometry":{"type":"Point","coordinates":[-0.089805,51.528557]}},{"type": "Feature","properties": {"postcode": "N1 7HR"},"geometry":{"type":"Point","coordinates":[-0.092337813807299,51.5321134851676]}},{"type": "Feature","properties": {"postcode": "N1 7HS"},"geometry":{"type":"Point","coordinates":[-0.090772439860461,51.5326545477068]}},{"type": "Feature","properties": {"postcode": "N1 7HT"},"geometry":{"type":"Point","coordinates":[-0.090451,51.532758]}},{"type": "Feature","properties": {"postcode": "N1 7HU"},"geometry":{"type":"Point","coordinates":[-0.092328797255517,51.5323291594355]}},{"type": "Feature","properties": {"postcode": "N1 7HX"},"geometry":{"type":"Point","coordinates":[-0.092619,51.532623]}},{"type": "Feature","properties": {"postcode": "N1 7HY"},"geometry":{"type":"Point","coordinates":[-0.092317658302632,51.5329404707999]}},{"type": "Feature","properties": {"postcode": "N1 7HZ"},"geometry":{"type":"Point","coordinates":[-0.092815708026965,51.5334431587882]}},{"type": "Feature","properties": {"postcode": "N1 7JB"},"geometry":{"type":"Point","coordinates":[-0.091095555505189,51.5338917838777]}},{"type": "Feature","properties": {"postcode": "N1 7JD"},"geometry":{"type":"Point","coordinates":[-0.088720838701809,51.5341318849788]}},{"type": "Feature","properties": {"postcode": "N1 7JE"},"geometry":{"type":"Point","coordinates":[-0.08979,51.5289087646418]}},{"type": "Feature","properties": {"postcode": "N1 7JH"},"geometry":{"type":"Point","coordinates":[-0.090186,51.529094]}},{"type": "Feature","properties": {"postcode": "N1 7JJ"},"geometry":{"type":"Point","coordinates":[-0.093277774607153,51.5330819763579]}},{"type": "Feature","properties": {"postcode": "N1 7JL"},"geometry":{"type":"Point","coordinates":[-0.093659815484942,51.5336007600411]}},{"type": "Feature","properties": {"postcode": "N1 7JN"},"geometry":{"type":"Point","coordinates":[-0.092957131764432,51.5324742641495]}},{"type": "Feature","properties": {"postcode": "N1 7JP"},"geometry":{"type":"Point","coordinates":[-0.092103867343218,51.5301223291837]}},{"type": "Feature","properties": {"postcode": "N1 7JQ"},"geometry":{"type":"Point","coordinates":[-0.091114625856339,51.5299893321369]}},{"type": "Feature","properties": {"postcode": "N1 7JR"},"geometry":{"type":"Point","coordinates":[-0.090206,51.528285]}},{"type": "Feature","properties": {"postcode": "N1 7JS"},"geometry":{"type":"Point","coordinates":[-0.089384850894066,51.5296374386792]}},{"type": "Feature","properties": {"postcode": "N1 7JW"},"geometry":{"type":"Point","coordinates":[-0.092507307504073,51.5311630324058]}},{"type": "Feature","properties": {"postcode": "N1 7JY"},"geometry":{"type":"Point","coordinates":[-0.087991114211658,51.5309006630828]}},{"type": "Feature","properties": {"postcode": "N1 7LB"},"geometry":{"type":"Point","coordinates":[-0.091775240478558,51.5293616101768]}},{"type": "Feature","properties": {"postcode": "N1 7LF"},"geometry":{"type":"Point","coordinates":[-0.091523672295857,51.528826957444]}},{"type": "Feature","properties": {"postcode": "N1 7LG"},"geometry":{"type":"Point","coordinates":[-0.091850917314361,51.5299653415281]}},{"type": "Feature","properties": {"postcode": "N1 7LJ"},"geometry":{"type":"Point","coordinates":[-0.090814709831841,51.5288873608777]}},{"type": "Feature","properties": {"postcode": "N1 7LL"},"geometry":{"type":"Point","coordinates":[-0.090938106807109,51.5293839591053]}},{"type": "Feature","properties": {"postcode": "N1 7LP"},"geometry":{"type":"Point","coordinates":[-0.090649086411273,51.5290555234131]}},{"type": "Feature","properties": {"postcode": "N1 7LQ"},"geometry":{"type":"Point","coordinates":[-0.09147,51.529772]}},{"type": "Feature","properties": {"postcode": "N1 7LR"},"geometry":{"type":"Point","coordinates":[-0.090748796051839,51.5301182664541]}},{"type": "Feature","properties": {"postcode": "N1 7LT"},"geometry":{"type":"Point","coordinates":[-0.090469034294041,51.5302575932932]}},{"type": "Feature","properties": {"postcode": "N1 7LU"},"geometry":{"type":"Point","coordinates":[-0.089804959735648,51.528556182773]}},{"type": "Feature","properties": {"postcode": "N1 7LX"},"geometry":{"type":"Point","coordinates":[-0.091775240478558,51.5293616101768]}},{"type": "Feature","properties": {"postcode": "N1 7LY"},"geometry":{"type":"Point","coordinates":[-0.091327107189184,51.5293902893849]}},{"type": "Feature","properties": {"postcode": "N1 7LZ"},"geometry":{"type":"Point","coordinates":[-0.091327107189184,51.529581]}},{"type": "Feature","properties": {"postcode": "N1 7NA"},"geometry":{"type":"Point","coordinates":[-0.09284063890679,51.528778]}},{"type": "Feature","properties": {"postcode": "N1 7NB"},"geometry":{"type":"Point","coordinates":[-0.089133794433043,51.5294355131942]}},{"type": "Feature","properties": {"postcode": "N1 7ND"},"geometry":{"type":"Point","coordinates":[-0.089121159787237,51.5290486279204]}},{"type": "Feature","properties": {"postcode": "N1 7NE"},"geometry":{"type":"Point","coordinates":[-0.089121159787237,51.5290486279204]}},{"type": "Feature","properties": {"postcode": "N1 7NF"},"geometry":{"type":"Point","coordinates":[-0.089121159787237,51.5290486279204]}},{"type": "Feature","properties": {"postcode": "N1 7NG"},"geometry":{"type":"Point","coordinates":[-0.088509342131399,51.5281663825082]}},{"type": "Feature","properties": {"postcode": "N1 7NH"},"geometry":{"type":"Point","coordinates":[-0.088787,51.528766]}},{"type": "Feature","properties": {"postcode": "N1 7NJ"},"geometry":{"type":"Point","coordinates":[-0.088601472797995,51.5294088552436]}},{"type": "Feature","properties": {"postcode": "N1 7NL"},"geometry":{"type":"Point","coordinates":[-0.088653561826088,51.5298863089171]}},{"type": "Feature","properties": {"postcode": "N1 7NN"},"geometry":{"type":"Point","coordinates":[-0.089488183104275,51.5302685997949]}},{"type": "Feature","properties": {"postcode": "N1 7NP"},"geometry":{"type":"Point","coordinates":[-0.089804959735648,51.528556182773]}},{"type": "Feature","properties": {"postcode": "N1 7NQ"},"geometry":{"type":"Point","coordinates":[-0.08906530374287,51.5286610385122]}},{"type": "Feature","properties": {"postcode": "N1 7NR"},"geometry":{"type":"Point","coordinates":[-0.08906530374287,51.5286610385122]}},{"type": "Feature","properties": {"postcode": "N1 7NS"},"geometry":{"type":"Point","coordinates":[-0.08906530374287,51.5286610385122]}},{"type": "Feature","properties": {"postcode": "N1 7NT"},"geometry":{"type":"Point","coordinates":[-0.091994,51.5317410580378]}},{"type": "Feature","properties": {"postcode": "N1 7NU"},"geometry":{"type":"Point","coordinates":[-0.091366194724941,51.531558127785]}},{"type": "Feature","properties": {"postcode": "N1 7NW"},"geometry":{"type":"Point","coordinates":[-0.089023,51.5297507418239]}},{"type": "Feature","properties": {"postcode": "N1 7NX"},"geometry":{"type":"Point","coordinates":[-0.090991208017066,51.5315610183487]}},{"type": "Feature","properties": {"postcode": "N1 7NY"},"geometry":{"type":"Point","coordinates":[-0.090404612473047,51.53145255261]}},{"type": "Feature","properties": {"postcode": "N1 7NZ"},"geometry":{"type":"Point","coordinates":[-0.089163846998369,51.5297507418239]}},{"type": "Feature","properties": {"postcode": "N1 7PA"},"geometry":{"type":"Point","coordinates":[-0.089846949479517,51.5316862716296]}},{"type": "Feature","properties": {"postcode": "N1 7PB"},"geometry":{"type":"Point","coordinates":[-0.089556375872914,51.5324279205137]}},{"type": "Feature","properties": {"postcode": "N1 7PD"},"geometry":{"type":"Point","coordinates":[-0.087738663448904,51.532452257971]}},{"type": "Feature","properties": {"postcode": "N1 7PE"},"geometry":{"type":"Point","coordinates":[-0.087522441987918,51.5321070163462]}},{"type": "Feature","properties": {"postcode": "N1 7PG"},"geometry":{"type":"Point","coordinates":[-0.088279679225713,51.5322722328394]}},{"type": "Feature","properties": {"postcode": "N1 7PH"},"geometry":{"type":"Point","coordinates":[-0.088816926975084,51.5321820692586]}},{"type": "Feature","properties": {"postcode": "N1 7PJ"},"geometry":{"type":"Point","coordinates":[-0.088455111009761,51.5318704273438]}},{"type": "Feature","properties": {"postcode": "N1 7PL"},"geometry":{"type":"Point","coordinates":[-0.087718689906798,51.5315526780402]}},{"type": "Feature","properties": {"postcode": "N1 7PN"},"geometry":{"type":"Point","coordinates":[-0.088105724867601,51.5312622329198]}},{"type": "Feature","properties": {"postcode": "N1 7PP"},"geometry":{"type":"Point","coordinates":[-0.088749,51.5310907227755]}},{"type": "Feature","properties": {"postcode": "N1 7PQ"},"geometry":{"type":"Point","coordinates":[-0.091568280060921,51.5305182810799]}},{"type": "Feature","properties": {"postcode": "N1 7PS"},"geometry":{"type":"Point","coordinates":[-0.088985472370237,51.5316002999528]}},{"type": "Feature","properties": {"postcode": "N1 7PT"},"geometry":{"type":"Point","coordinates":[-0.089643242426293,51.531386200442]}},{"type": "Feature","properties": {"postcode": "N1 7PU"},"geometry":{"type":"Point","coordinates":[-0.08949905094747,51.5310421354982]}},{"type": "Feature","properties": {"postcode": "N1 7PX"},"geometry":{"type":"Point","coordinates":[-0.089991438778794,51.5306454895447]}},{"type": "Feature","properties": {"postcode": "N1 7QA"},"geometry":{"type":"Point","coordinates":[-0.093671312287973,51.532980461998]}},{"type": "Feature","properties": {"postcode": "N1 7QD"},"geometry":{"type":"Point","coordinates":[-0.093294908834675,51.5323268818634]}},{"type": "Feature","properties": {"postcode": "N1 7QE"},"geometry":{"type":"Point","coordinates":[-0.092876521038144,51.530953214767]}},{"type": "Feature","properties": {"postcode": "N1 7QF"},"geometry":{"type":"Point","coordinates":[-0.086954409197916,51.5305240585756]}},{"type": "Feature","properties": {"postcode": "N1 7QG"},"geometry":{"type":"Point","coordinates":[-0.091624535067684,51.5308968829953]}},{"type": "Feature","properties": {"postcode": "N1 7QH"},"geometry":{"type":"Point","coordinates":[-0.090917420240505,51.5309123545767]}},{"type": "Feature","properties": {"postcode": "N1 7QJ"},"geometry":{"type":"Point","coordinates":[-0.08949905094747,51.5310421354982]}},{"type": "Feature","properties": {"postcode": "N1 7QL"},"geometry":{"type":"Point","coordinates":[-0.090715589350377,51.5305673530645]}},{"type": "Feature","properties": {"postcode": "N1 7QP"},"geometry":{"type":"Point","coordinates":[-0.088748709699834,51.5310568899827]}},{"type": "Feature","properties": {"postcode": "N1 7QQ"},"geometry":{"type":"Point","coordinates":[-0.087169865771962,51.5308872740202]}},{"type": "Feature","properties": {"postcode": "N1 7QR"},"geometry":{"type":"Point","coordinates":[-0.087006666720689,51.5316849491631]}},{"type": "Feature","properties": {"postcode": "N1 7QS"},"geometry":{"type":"Point","coordinates":[-0.087209793186989,51.5313105747216]}},{"type": "Feature","properties": {"postcode": "N1 7QU"},"geometry":{"type":"Point","coordinates":[-0.088607913594737,51.5306319463046]}},{"type": "Feature","properties": {"postcode": "N1 7QW"},"geometry":{"type":"Point","coordinates":[-0.087851,51.5318289076568]}},{"type": "Feature","properties": {"postcode": "N1 7QX"},"geometry":{"type":"Point","coordinates":[-0.087930271505135,51.5302881782874]}},{"type": "Feature","properties": {"postcode": "N1 7QY"},"geometry":{"type":"Point","coordinates":[-0.088317020183799,51.5303484370764]}},{"type": "Feature","properties": {"postcode": "N1 7QZ"},"geometry":{"type":"Point","coordinates":[-0.092210487861231,51.5303308917268]}},{"type": "Feature","properties": {"postcode": "N1 7RA"},"geometry":{"type":"Point","coordinates":[-0.088895586441685,51.5303039093306]}},{"type": "Feature","properties": {"postcode": "N1 7RB"},"geometry":{"type":"Point","coordinates":[-0.088237625039131,51.5298345680594]}},{"type": "Feature","properties": {"postcode": "N1 7RD"},"geometry":{"type":"Point","coordinates":[-0.088137800523174,51.5294642467075]}},{"type": "Feature","properties": {"postcode": "N1 7RE"},"geometry":{"type":"Point","coordinates":[-0.08798900789323,51.5288862984844]}},{"type": "Feature","properties": {"postcode": "N1 7RF"},"geometry":{"type":"Point","coordinates":[-0.091444119667341,51.5290055139629]}},{"type": "Feature","properties": {"postcode": "N1 7RH"},"geometry":{"type":"Point","coordinates":[-0.089208,51.5282646973572]}},{"type": "Feature","properties": {"postcode": "N1 7RP"},"geometry":{"type":"Point","coordinates":[-0.089024231901303,51.528419]}},{"type": "Feature","properties": {"postcode": "N1 7RQ"},"geometry":{"type":"Point","coordinates":[-0.094775295208567,51.5334750019463]}},{"type": "Feature","properties": {"postcode": "N1 7RR"},"geometry":{"type":"Point","coordinates":[-0.094775295208567,51.5334750019463]}},{"type": "Feature","properties": {"postcode": "N1 7RW"},"geometry":{"type":"Point","coordinates":[-0.095022,51.5302668423384]}},{"type": "Feature","properties": {"postcode": "N1 7RX"},"geometry":{"type":"Point","coordinates":[-0.095497954441001,51.5317062152514]}},{"type": "Feature","properties": {"postcode": "N1 7SB"},"geometry":{"type":"Point","coordinates":[-0.095085674561614,51.5322570580437]}},{"type": "Feature","properties": {"postcode": "N1 7SE"},"geometry":{"type":"Point","coordinates":[-0.095329,51.532649]}},{"type": "Feature","properties": {"postcode": "N1 7SG"},"geometry":{"type":"Point","coordinates":[-0.095314112129816,51.5326564389195]}},{"type": "Feature","properties": {"postcode": "N1 7SH"},"geometry":{"type":"Point","coordinates":[-0.095314112129816,51.5326564389195]}},{"type": "Feature","properties": {"postcode": "N1 7SJ"},"geometry":{"type":"Point","coordinates":[-0.095329,51.532649]}},{"type": "Feature","properties": {"postcode": "N1 7SL"},"geometry":{"type":"Point","coordinates":[-0.094476928276691,51.5309522458198]}},{"type": "Feature","properties": {"postcode": "N1 7SP"},"geometry":{"type":"Point","coordinates":[-0.088170655021167,51.529024147411]}},{"type": "Feature","properties": {"postcode": "N1 7SR"},"geometry":{"type":"Point","coordinates":[-0.088170655021167,51.529267]}},{"type": "Feature","properties": {"postcode": "N1 7SS"},"geometry":{"type":"Point","coordinates":[-0.088170655021167,51.529024147411]}},{"type": "Feature","properties": {"postcode": "N1 7ST"},"geometry":{"type":"Point","coordinates":[-0.095329,51.532649]}},{"type": "Feature","properties": {"postcode": "N1 7SU"},"geometry":{"type":"Point","coordinates":[-0.0885,51.529024147411]}},{"type": "Feature","properties": {"postcode": "N1 7SX"},"geometry":{"type":"Point","coordinates":[-0.094673909330596,51.533140631506]}},{"type": "Feature","properties": {"postcode": "N1 7SY"},"geometry":{"type":"Point","coordinates":[-0.094673909330596,51.533140631506]}},{"type": "Feature","properties": {"postcode": "N1 7SZ"},"geometry":{"type":"Point","coordinates":[-0.095329,51.532649]}},{"type": "Feature","properties": {"postcode": "N1 7TA"},"geometry":{"type":"Point","coordinates":[-0.093417,51.530783]}},{"type": "Feature","properties": {"postcode": "N1 7TB"},"geometry":{"type":"Point","coordinates":[-0.093434,51.53037]}},{"type": "Feature","properties": {"postcode": "N1 7TD"},"geometry":{"type":"Point","coordinates":[-0.095329,51.532649]}},{"type": "Feature","properties": {"postcode": "N1 7TE"},"geometry":{"type":"Point","coordinates":[-0.093360573518355,51.5297201131788]}},{"type": "Feature","properties": {"postcode": "N1 7TG"},"geometry":{"type":"Point","coordinates":[-0.093451664991686,51.5299553997831]}},{"type": "Feature","properties": {"postcode": "N1 7TH"},"geometry":{"type":"Point","coordinates":[-0.093056236887759,51.5290677031337]}},{"type": "Feature","properties": {"postcode": "N1 7TJ"},"geometry":{"type":"Point","coordinates":[-0.093803166518793,51.529133798698]}},{"type": "Feature","properties": {"postcode": "N1 7TL"},"geometry":{"type":"Point","coordinates":[-0.094029471263343,51.5299288194817]}},{"type": "Feature","properties": {"postcode": "N1 7TN"},"geometry":{"type":"Point","coordinates":[-0.093786275176366,51.5295381884942]}},{"type": "Feature","properties": {"postcode": "N1 7TP"},"geometry":{"type":"Point","coordinates":[-0.089121159787237,51.5290486279204]}},{"type": "Feature","properties": {"postcode": "N1 7TQ"},"geometry":{"type":"Point","coordinates":[-0.094211222898281,51.5293742351081]}},{"type": "Feature","properties": {"postcode": "N1 7TS"},"geometry":{"type":"Point","coordinates":[-0.093442,51.530883]}},{"type": "Feature","properties": {"postcode": "N1 7TT"},"geometry":{"type":"Point","coordinates":[-0.090206,51.528285]}},{"type": "Feature","properties": {"postcode": "N1 7TU"},"geometry":{"type":"Point","coordinates":[-0.089919955535616,51.529064]}},{"type": "Feature","properties": {"postcode": "N1 7UX"},"geometry":{"type":"Point","coordinates":[-0.096164641576238,51.5319688283854]}},{"type": "Feature","properties": {"borough": "Hackney","name": "Hoxton"},"geometry":{"type":"MultiPolygon","coordinates":[[[[-0.085020668931146,51.5262034337122],[-0.086456321103131,51.5258644632086],[-0.086795377498152,51.5257890609719],[-0.087032148386073,51.5258495757021],[-0.087439912581783,51.5259578409033],[-0.087804130798768,51.5261076597784],[-0.087837832366757,51.526232306368],[-0.088131933569482,51.5268171197801],[-0.088310233300035,51.527069119368],[-0.088484756665704,51.5272392249389],[-0.088552188116256,51.5273158611879],[-0.088598187306037,51.5273534802031],[-0.088662953007604,51.5273905057379],[-0.088780421791517,51.5274427780425],[-0.089049974173769,51.5275469869602],[-0.08960131164124,51.5277043446264],[-0.095405319086703,51.5291934703892],[-0.095141916462694,51.5296666969988],[-0.09509344226323,51.529791805331],[-0.095081946832124,51.5298599619293],[-0.095083530761733,51.5299256331669],[-0.09511285749377,51.5300520049191],[-0.0953176696786,51.5304644910845],[-0.095524832619232,51.5307861904106],[-0.095895166754122,51.5313092730923],[-0.096261427890921,51.5318610645139],[-0.097033608314978,51.5329823727887],[-0.096552463911886,51.5331103537082],[-0.096163832355875,51.5332326401392],[-0.096011769746789,51.5332832280328],[-0.095045527058603,51.5336335369543],[-0.095049767581641,51.5337046468138],[-0.094553165378148,51.5338917192775],[-0.094484063062625,51.5338546266735],[-0.093986166217716,51.5340380787117],[-0.09377920872129,51.5341255404115],[-0.093284577347868,51.5343342216514],[-0.092548223102795,51.5346684630303],[-0.091981560267284,51.5349443107946],[-0.091588528360463,51.535136652378],[-0.091375045795452,51.5352419887896],[-0.090772947081368,51.5355028661608],[-0.090257598999981,51.535757958759],[-0.089718576787094,51.535992880025],[-0.089690559104191,51.5360077110795],[-0.089208135794922,51.5353730742952],[-0.087891885144681,51.5357463991169],[-0.086749309788584,51.5360694860154],[-0.086587169723035,51.536084826523],[-0.086538060561139,51.5357773799376],[-0.086515706566555,51.5355540003511],[-0.086437617125107,51.5349061629766],[-0.085890870575899,51.5349125302075],[-0.083711005900139,51.5349057168226],[-0.08288506267074,51.5348994155193],[-0.082869748690913,51.5347148180915],[-0.082888646066262,51.5343680147159],[-0.082940859856906,51.5339489161826],[-0.083030862874055,51.5332480692156],[-0.083054854947718,51.5325740203045],[-0.08142134623527,51.5326750088142],[-0.081383771099327,51.5326770920083],[-0.080823218924941,51.5327380641967],[-0.080753831858661,51.5327423244841],[-0.080684482579532,51.5327456860937],[-0.080173287208277,51.532730126814],[-0.080188558565377,51.5320244615289],[-0.080207966143402,51.5316659763604],[-0.080225113944111,51.5308128638095],[-0.080269168926373,51.5304853566298],[-0.080280972172941,51.5302733255427],[-0.080266467886495,51.5301040281642],[-0.080234607468614,51.5300045886475],[-0.080058396609876,51.5294981215885],[-0.080033497631664,51.5292675046433],[-0.080029654770459,51.5291532362939],[-0.080057563003805,51.5288668305764],[-0.080149227861965,51.5281615159952],[-0.080859410060645,51.5281407642496],[-0.080939248086844,51.5280935106541],[-0.08140379347818,51.5280858225126],[-0.081523522097396,51.5280841837566],[-0.081624974993396,51.5280714549237],[-0.082228851936866,51.5280759339387],[-0.082700562781568,51.5280692570662],[-0.083627230941847,51.5280772060468],[-0.08366885482702,51.5269142496905],[-0.083692413062022,51.526799529873],[-0.083741686680415,51.5265530396074],[-0.084640461786191,51.5264004576319],[-0.08507631188068,51.5263203460489],[-0.085020668931146,51.5262034337122]]]]}}]}
